0 COSMOS 2251 DEB
1 34114U 93036KK  13282.90177160  .00001959  00000-0  86108-3 0  1904
2 34114 074.0729 221.7826 0082269 256.9329 158.3713 14.22390487241448
0 COSMOS 2251 DEB
1 34114U 93036KK  13283.96016609  .00002704  00000-0  11840-2 0  1911
2 34114 074.0730 219.8882 0082347 254.7674 178.0041 14.22391850241590
0 COSMOS 2251 DEB
1 34114U 93036KK  13285.51659900  .00001985  00000-0  87236-3 0  1925
2 34114 074.0732 217.0994 0082181 251.6093 227.8934 14.22400125241818
0 COSMOS 2251 DEB
1 34114U 93036KK  13286.99487998  .00002156  00000-0  94629-3 0  1930
2 34114 074.0734 214.4502 0082078 248.5922 237.6582 14.22405401242021
0 COSMOS 2251 DEB
1 34114U 93036KK  13288.26811398  .00002809  00000-0  12293-2 0  1949
2 34114 074.0736 212.1692 0082021 245.9973 277.4694 14.22413104242208
0 COSMOS 2251 DEB
1 34114U 93036KK  13289.58456532  .00002696  00000-0  11806-2 0  1954
2 34114 074.0737 209.8106 0081883 243.2962 178.6374 14.22419001242395
0 COSMOS 2251 DEB
1 34114U 93036KK  13291.14293740  .00002735  00000-0  11975-2 0  1961
2 34114 074.0737 207.0188 0081694 240.0848 238.6633 14.22425850242612
0 COSMOS 2251 DEB
1 34114U 93036KK  13292.18884471  .00002784  00000-0  12187-2 0  1974
2 34114 074.0735 205.1450 0081556 237.9450 194.4942 14.22429918242769
0 COSMOS 2251 DEB
1 34114U 93036KK  13293.46353131  .00002900  00000-0  12688-2 0  1987
2 34114 074.0731 202.8610 0081493 235.3573 241.8489 14.22436909242946
0 COSMOS 2251 DEB
1 34114U 93036KK  13294.50550399  .00002781  00000-0  12174-2 0  1996
2 34114 074.0729 200.9941 0081356 233.2412 177.5553 14.22442676243098
0 COSMOS 2251 DEB
1 34114U 93036KK  13295.84454256  .00002577  00000-0  11286-2 0  2008
2 34114 074.0727 198.5949 0081295 230.5238 194.4985 14.22449720243289
